NORAD_CAT_ID,OBJECT_NAME,OBJECT_TYPE,EPOCH,MEAN_MOTION,ECCENTRICITY,INCLINATION,RA_OF_ASC_NODE,ARG_OF_PERICENTER,MEAN_ANOMALY,BSTAR,MEAN_MOTION_DOT,MEAN_MOTION_DDOT,TLE_LINE0,TLE_LINE1,TLE_LINE2,SEMIMAJOR_AXIS,PERIOD,APOGEE,PERIGEE,DECAYED
56472.0,STARLINK-5038,PAYLOAD,2024-04-19 21:44:15,14.98334872,0.0002958,70.0002,61.2267,268.7117,91.3703,0.00034717,4.052e-05,0.0,0 STARLINK-5038,1 56472U 23064AA  24110.90573060  .00004052  00000-0  34717-3 0  9993,2 56472  70.0002  61.2267 0002958 268.7117  91.3703 14.98334872 52565,6950.178,96.107,574.099,569.987,0.0
56472.0,STARLINK-5038,PAYLOAD,2024-04-20 05:44:55,14.98352954,0.000194,70.0037,60.3863,241.7408,118.3556,0.00073655,8.711e-05,0.0,0 STARLINK-5038,1 56472U 23064AA  24111.23952796  .00008711  00000-0  73655-3 0  9997,2 56472  70.0037  60.3863 0001940 241.7408 118.3556 14.98352954 52971,6950.122,96.106,573.335,570.639,0.0
56472.0,STARLINK-5038,PAYLOAD,2024-04-20 21:46:17,14.9831392,0.0002806,70.002,58.7016,263.4577,96.6263,-0.00037137,-4.519e-05,0.0,0 STARLINK-5038,1 56472U 23064AA  24111.90714963 -.00004519  00000-0 -37137-3 0  9992,2 56472  70.0020  58.7016 0002806 263.4577  96.6263 14.98313920 52719,6950.243,96.108,574.058,570.157,0.0
56472.0,STARLINK-5038,PAYLOAD,2024-04-21 04:10:50,14.98288393,0.0002565,70.0027,58.0283,251.3418,108.7463,-0.001273,-0.00015232,0.0,0 STARLINK-5038,1 56472U 23064AA  24112.17419502 -.00015232  00000-0 -12730-2 0  9998,2 56472  70.0027  58.0283 0002565 251.3418 108.7463 14.98288393 53114,6950.322,96.11,573.969,570.404,0.0
56472.0,STARLINK-5038,PAYLOAD,2024-04-21 05:46:58,14.98307673,0.0003064,70.0017,57.8599,276.0647,84.0163,-0.00045264,-5.486e-05,0.0,0 STARLINK-5038,1 56472U 23064AA  24112.24095080 -.00005486  00000-0 -45264-3 0  9996,2 56472  70.0017  57.8599 0003064 276.0647  84.0163 14.98307673 52769,6950.262,96.108,574.256,569.997,0.0
56472.0,STARLINK-5038,PAYLOAD,2024-04-21 21:48:18,14.9833053,0.0002887,70.0036,56.1787,271.0018,89.081,0.0013644,0.00016225,0.0,0 STARLINK-5038,1 56472U 23064AA  24112.90855007  .00016225  00000-0  13644-2 0  9999,2 56472  70.0036  56.1787 0002887 271.0018  89.0810 14.98330530 52863,6950.191,96.107,574.063,570.05,0.0
56472.0,STARLINK-5038,PAYLOAD,2024-04-22 04:12:50,14.98355041,0.0002401,70.0052,55.5074,221.3906,138.7071,0.0025935,0.00031009,0.0,0 STARLINK-5038,1 56472U 23064AA  24113.17558778  .00031009  00000-0  25935-2 0  9997,2 56472  70.0052  55.5074 0002401 221.3906 138.7071 14.98355041 53269,6950.115,96.105,573.649,570.312,0.0
56472.0,STARLINK-5038,PAYLOAD,2024-04-22 05:48:58,14.98356044,0.0002386,70.004,55.3375,241.4494,118.6425,0.0021774,0.00026001,0.0,0 STARLINK-5038,1 56472U 23064AA  24113.24234383  .00026001  00000-0  21774-2 0  9991,2 56472  70.0040  55.3375 0002386 241.4494 118.6425 14.98356044 52910,6950.112,96.105,573.636,570.319,0.0
56472.0,STARLINK-5038,PAYLOAD,2024-04-22 20:14:11,14.98340147,0.0002625,70.0046,53.8221,256.438,103.6486,5.5686e-05,5.72e-06,0.0,0 STARLINK-5038,1 56472U 23064AA  24113.84318461  .00000572  00000-0  55686-4 0  9993,2 56472  70.0046  53.8221 0002625 256.4380 103.6486 14.98340147 53363,6950.162,96.106,573.851,570.202,0.0
56472.0,STARLINK-5038,PAYLOAD,2024-04-22 21:50:19,14.98335647,0.0003025,70.0031,53.6523,274.5467,85.5347,-0.00013079,-1.653e-05,0.0,0 STARLINK-5038,1 56472U 23064AA  24113.90994534 -.00001653  00000-0 -13079-3 0  9993,2 56472  70.0031  53.6523 0003025 274.5467  85.5347 14.98335647 53017,6950.175,96.107,574.143,569.938,0.0
56472.0,STARLINK-5038,PAYLOAD,2024-04-23 04:14:51,14.9832734,0.0002644,70.0032,52.9797,256.9282,103.1582,0.0002487,2.875e-05,0.0,0 STARLINK-5038,1 56472U 23064AA  24114.17698984  .00002875  00000-0  24870-3 0  9999,2 56472  70.0032  52.9797 0002644 256.9282 103.1582 14.98327340 53411,6950.201,96.107,573.904,570.228,0.0
56472.0,STARLINK-5038,PAYLOAD,2024-04-23 05:50:59,14.98328724,0.0002638,70.0035,52.8119,255.0977,104.989,0.00022251,2.563e-05,0.0,0 STARLINK-5038,1 56472U 23064AA  24114.24374887  .00002563  00000-0  22251-3 0  9995,2 56472  70.0035  52.8119 0002638 255.0977 104.9890 14.98328724 53064,6950.197,96.107,573.895,570.228,0.0
56472.0,STARLINK-5038,PAYLOAD,2024-04-23 20:16:11,14.9834073,0.000287,70.0032,51.2975,255.1021,104.9821,-0.00010291,-1.321e-05,0.0,0 STARLINK-5038,1 56472U 23064AA  24114.84457902 -.00001321  00000-0 -10291-3 0  9995,2 56472  70.0032  51.2975 0002870 255.1021 104.9821 14.98340730 53518,6950.16,96.106,574.019,570.03,0.0
56472.0,STARLINK-5038,PAYLOAD,2024-04-23 21:52:19,14.98341026,0.0002871,70.0032,51.129,254.0708,106.0135,-3.9266e-05,-5.62e-06,0.0,0 STARLINK-5038,1 56472U 23064AA  24114.91133863 -.00000562  00000-0 -39266-4 0  9990,2 56472  70.0032  51.1290 0002871 254.0708 106.0135 14.98341026 53169,6950.159,96.106,574.019,570.028,0.0
56472.0,STARLINK-5038,PAYLOAD,2024-04-24 05:52:59,14.98347656,0.000264,70.0038,50.2875,253.6641,106.4228,0.00029048,3.376e-05,0.0,0 STARLINK-5038,1 56472U 23064AA  24115.24513535  .00003376  00000-0  29048-3 0  9995,2 56472  70.0038  50.2875 0002640 253.6641 106.4228 14.98347656 53217,6950.138,96.106,573.838,570.168,0.0
56472.0,STARLINK-5038,PAYLOAD,2024-04-24 20:18:12,14.9833423,0.0002827,70.0039,48.7728,254.4237,105.661,0.00018092,2.067e-05,0.0,0 STARLINK-5038,1 56472U 23064AA  24115.84598043  .00002067  00000-0  18092-3 0  9991,2 56472  70.0039  48.7728 0002827 254.4237 105.6610 14.98334230 53663,6950.18,96.107,574.01,570.08,0.0
56472.0,STARLINK-5038,PAYLOAD,2024-04-24 21:54:20,14.98334881,0.0002902,70.0038,48.6045,253.7959,106.2881,0.00019905,2.283e-05,0.0,0 STARLINK-5038,1 56472U 23064AA  24115.91274022  .00002283  00000-0  19905-3 0  9991,2 56472  70.0038  48.6045 0002902 253.7959 106.2881 14.98334881 53311,6950.178,96.107,574.06,570.026,0.0
56472.0,STARLINK-5038,PAYLOAD,2024-04-25 04:18:52,14.98339705,0.000282,70.004,47.9317,251.7083,108.377,0.00033026,3.851e-05,0.0,0 STARLINK-5038,1 56472U 23064AA  24116.17977779  .00003851  00000-0  33026-3 0  9991,2 56472  70.0040  47.9317 0002820 251.7083 108.3770 14.98339705 53357,6950.163,96.106,573.988,570.068,0.0
56472.0,STARLINK-5038,PAYLOAD,2024-04-25 20:20:13,14.98335606,0.0002554,70.0044,46.2481,253.3173,106.7705,0.0003278,3.821e-05,0.0,0 STARLINK-5038,1 56472U 23064AA  24116.84737949  .00003821  00000-0  32780-3 0  9991,2 56472  70.0044  46.2481 0002554 253.3173 106.7705 14.98335606 53814,6950.176,96.107,573.816,570.265,0.0
56472.0,STARLINK-5038,PAYLOAD,2024-04-25 21:56:21,14.98335382,0.0002542,70.0044,46.0795,254.2862,105.8017,0.00031222,3.635e-05,0.0,0 STARLINK-5038,1 56472U 23064AA  24116.91413934  .00003635  00000-0  31222-3 0  9997,2 56472  70.0044  46.0795 0002542 254.2862 105.8017 14.98335382 53460,6950.176,96.107,573.808,570.275,0.0
56472.0,STARLINK-5038,PAYLOAD,2024-04-26 12:21:33,14.98339729,0.0002386,70.0043,44.5619,264.9664,95.1222,0.00029007,3.371e-05,0.0,0 STARLINK-5038,1 56472U 23064AA  24117.51497619  .00003371  00000-0  29007-3 0  9991,2 56472  70.0043  44.5619 0002386 264.9664  95.1222 14.98339729 53559,6950.163,96.106,573.686,570.369,0.0
56472.0,STARLINK-5038,PAYLOAD,2024-04-26 20:22:14,14.98339213,0.0002447,70.004,43.7199,265.7576,94.3303,0.00038283,4.479e-05,0.0,0 STARLINK-5038,1 56472U 23064AA  24117.84877473  .00004479  00000-0  38283-3 0  9993,2 56472  70.0040  43.7199 0002447 265.7576  94.3303 14.98339213 53963,6950.164,96.106,573.73,570.329,0.0
56472.0,STARLINK-5038,PAYLOAD,2024-04-26 21:58:22,14.9833935,0.0002632,70.0035,43.5534,262.0345,98.0515,0.00028818,3.348e-05,0.0,0 STARLINK-5038,1 56472U 23064AA  24117.91553461  .00003348  00000-0  28818-3 0  9996,2 56472  70.0035  43.5534 0002632 262.0345  98.0515 14.98339350 53618,6950.164,96.106,573.858,570.2,0.0
56472.0,STARLINK-5038,PAYLOAD,2024-04-27 12:23:35,14.98327895,6.54e-05,70.0041,42.0379,294.3942,65.7148,-4.3664e-05,-6.13e-06,0.0,0 STARLINK-5038,1 56472U 23064AA  24118.51638310 -.00000613  00000-0 -43664-4 0  9991,2 56472  70.0041  42.0379 0000654 294.3942  65.7148 14.98327895 54063,6950.199,96.107,572.519,571.61,0.0
56472.0,STARLINK-5038,PAYLOAD,2024-04-27 22:00:23,14.98314451,0.0002961,70.0033,41.0301,270.8925,89.1895,-0.00047582,-5.763e-05,0.0,0 STARLINK-5038,1 56472U 23064AA  24118.91694093 -.00005763  00000-0 -47582-3 0  9998,2 56472  70.0033  41.0301 0002961 270.8925  89.1895 14.98314451 53760,6950.241,96.108,574.164,570.048,0.0
56472.0,STARLINK-5038,PAYLOAD,2024-04-28 12:25:36,14.98325524,0.0002716,70.0026,39.5126,269.0106,91.0742,-7.6705e-05,-1.008e-05,0.0,0 STARLINK-5038,1 56472U 23064AA  24119.51778180 -.00001008  00000-0 -76705-4 0  9993,2 56472  70.0026  39.5126 0002716 269.0106  91.0742 14.98325524 54215,6950.207,96.107,573.959,570.184,0.0
56472.0,STARLINK-5038,PAYLOAD,2024-04-28 22:02:24,14.98334335,0.0003009,70.0024,38.5034,270.6207,89.4607,0.000498,5.855e-05,0.0,0 STARLINK-5038,1 56472U 23064AA  24119.91834001  .00005855  00000-0  49800-3 0  9999,2 56472  70.0024  38.5034 0003009 270.6207  89.4607 14.98334335 53913,6950.179,96.107,574.136,569.953,0.0
56472.0,STARLINK-5038,PAYLOAD,2024-04-29 04:26:56,14.98340333,0.0003087,70.0026,37.8299,270.7062,89.3743,0.00097746,0.00011592,0.0,0 STARLINK-5038,1 56472U 23064AA  24120.18538072  .00011592  00000-0  97746-3 0  9996,2 56472  70.0026  37.8299 0003087 270.7062  89.3743 14.98340333 54316,6950.161,96.106,574.171,569.88,0.0
56472.0,STARLINK-5038,PAYLOAD,2024-04-29 20:28:17,14.98341165,0.0003046,70.0026,36.1464,270.8639,89.2171,0.00038409,4.494e-05,0.0,0 STARLINK-5038,1 56472U 23064AA  24120.85297766  .00004494  00000-0  38409-3 0  9996,2 56472  70.0026  36.1464 0003046 270.8639  89.2171 14.98341165 54417,6950.158,96.106,574.14,569.906,0.0
56472.0,STARLINK-5038,PAYLOAD,2024-04-29 22:04:25,14.98341178,0.0003047,70.0026,35.9781,270.8752,89.2058,0.00036621,4.281e-05,0.0,0 STARLINK-5038,1 56472U 23064AA  24120.91973732  .00004281  00000-0  36621-3 0  9995,2 56472  70.0026  35.9781 0003047 270.8752  89.2058 14.98341178 54062,6950.158,96.106,574.141,569.906,0.0
